IRIDIUM 159             
1 43578U 18061K   24318.66238645  .00000596  00000+0  20579-3 0  9996
2 43578  86.3924 299.3000 0002138  89.4917 270.6524 14.34219447330175
IRIDIUM 180             
1 43922U 19002A   24318.73165326  .00000763  00000+0  26542-3 0  9990
2 43922  86.3994 236.1198 0002242  82.1731 277.9719 14.34210904305797
IRIDIUM 176             
1 43923U 19002B   24318.71478039  .00002812  00000+0  44213-3 0  9999
2 43923  86.6119 236.1357 0002456  94.5086 265.6412 14.72242216313846
IRIDIUM 168             
1 43924U 19002C   24318.72530610  .00000960  00000+0  33562-3 0  9992
2 43924  86.3994 236.1831 0002253  83.9682 276.1770 14.34220876305774
IRIDIUM 173             
1 43925U 19002D   24318.71263083  .00000874  00000+0  30513-3 0  9996
2 43925  86.3990 236.1012 0002236  82.0483 278.0966 14.34215634305754
IRIDIUM 169             
1 43926U 19002E   24318.60068328  .00001117  00000+0  35867-3 0  9998
2 43926  86.4200 267.7750 0004174  86.5139 273.6537 14.38598798306754
IRIDIUM 172             
1 43927U 19002F   24318.84582428  .00000529  00000+0  18196-3 0  9999
2 43927  86.3988 236.0514 0002174  84.6579 275.4864 14.34214802305781
IRIDIUM 175             
1 43928U 19002G   24318.91327590  .00002469  00000+0  38746-3 0  9993
2 43928  86.1555 200.7885 0003086  65.2515 294.9022 14.72250129313861
